{
  "norad_id": 59308,
  "name": "STARLINK-31485",
  "history": [
    {
      "epoch": "2026-03-28T19:09:13.947840Z",
      "apogee_km": 483.13003055961053,
      "perigee_km": 482.9535610409821,
      "latitude_deg": -2.720118298569223e-05,
      "longitude_deg": 9.534297437339129,
      "height_km": 482.7350353484276,
      "semi_major_axis_km": 6861.178795800296,
      "eccentricity": 1.286e-05,
      "inclination_deg": 43.0025,
      "raan_deg": 123.0558,
      "arg_perigee_deg": 339.2444,
      "mean_anomaly_deg": 20.8402,
      "mean_motion_rev_day": 15.27582438
    }
  ]
}