{"fetched_at":"2026-03-30T09:12:31Z","count":15922,"tles":[{"name":"STARLINK-31485","line1":"1 59308U 24056N   26087.79807810 -.00001006  00000+0 -27039-4 0  9998","line2":"2 59308  43.0025 123.0558 0000128 339.2444  20.8402 15.27582438114079","category":"Starlink"}]}